{
  "norad_id": 55818,
  "name": "ONEWEB-0657",
  "history": [
    {
      "epoch": "2026-04-14T20:12:08.495136Z",
      "apogee_km": 1186.6253511948635,
      "perigee_km": 1184.923471127353,
      "latitude_deg": 8.196347128893668e-06,
      "longitude_deg": 171.56031007421387,
      "height_km": 1188.448510141985,
      "semi_major_axis_km": 7563.911411161108,
      "eccentricity": 0.0001125,
      "inclination_deg": 87.9169,
      "raan_deg": 317.6081,
      "arg_perigee_deg": 74.6203,
      "mean_anomaly_deg": 285.5054,
      "mean_motion_rev_day": 13.1972399
    },
    {
      "epoch": "2026-04-15T07:07:11.983008Z",
      "apogee_km": 1186.6129719159771,
      "perigee_km": 1184.9378678714675,
      "latitude_deg": 7.747222714496246e-05,
      "longitude_deg": 7.256709255779593,
      "height_km": 1188.4595265966543,
      "semi_major_axis_km": 7563.912419893722,
      "eccentricity": 0.00011073,
      "inclination_deg": 87.9165,
      "raan_deg": 317.5174,
      "arg_perigee_deg": 75.077,
      "mean_anomaly_deg": 285.0486,
      "mean_motion_rev_day": 13.19723726
    },
    {
      "epoch": "2026-04-16T19:30:43.551648Z",
      "apogee_km": 1186.6004096349043,
      "perigee_km": 1184.9499639957412,
      "latitude_deg": -8.082810214202583e-06,
      "longitude_deg": 179.57850256608555,
      "height_km": 1188.508457655547,
      "semi_major_axis_km": 7563.9121868153225,
      "eccentricity": 0.0001091,
      "inclination_deg": 87.9168,
      "raan_deg": 317.2153,
      "arg_perigee_deg": 78.3564,
      "mean_anomaly_deg": 281.7691,
      "mean_motion_rev_day": 13.19723787
    },
    {
      "epoch": "2026-04-17T13:42:29.003328Z",
      "apogee_km": 1186.3662063143584,
      "perigee_km": 1185.1190738393025,
      "latitude_deg": 1.7047012415963895e-05,
      "longitude_deg": -94.25925898416611,
      "height_km": 1188.480065360957,
      "semi_major_axis_km": 7563.879640076831,
      "eccentricity": 8.244e-05,
      "inclination_deg": 87.9164,
      "raan_deg": 317.0642,
      "arg_perigee_deg": 74.8614,
      "mean_anomaly_deg": 285.261,
      "mean_motion_rev_day": 13.19732305
    },
    {
      "epoch": "2026-04-18T20:38:29.189184Z",
      "apogee_km": 1186.5834559152809,
      "perigee_km": 1184.9678041775041,
      "latitude_deg": 9.451980318611749e-06,
      "longitude_deg": 160.2126778511057,
      "height_km": 1188.5661920425846,
      "semi_major_axis_km": 7563.912630046392,
      "eccentricity": 0.0001068,
      "inclination_deg": 87.9163,
      "raan_deg": 316.8073,
      "arg_perigee_deg": 82.2254,
      "mean_anomaly_deg": 277.9,
      "mean_motion_rev_day": 13.19723671
    },
    {
      "epoch": "2026-04-19T20:17:46.728672Z",
      "apogee_km": 1186.577385439814,
      "perigee_km": 1184.9723233443128,
      "latitude_deg": 4.128830151879283e-05,
      "longitude_deg": 164.2217256622263,
      "height_km": 1188.592088320864,
      "semi_major_axis_km": 7563.911854392063,
      "eccentricity": 0.0001061,
      "inclination_deg": 87.9164,
      "raan_deg": 316.6109,
      "arg_perigee_deg": 84.0914,
      "mean_anomaly_deg": 276.034,
      "mean_motion_rev_day": 13.19723874
    },
    {
      "epoch": "2026-04-20T07:12:50.187168Z",
      "apogee_km": 1186.586589885571,
      "perigee_km": 1184.9592903010607,
      "latitude_deg": 4.688355247670711e-05,
      "longitude_deg": -0.0817564174371072,
      "height_km": 1188.6080438696429,
      "semi_major_axis_km": 7563.9099400933155,
      "eccentricity": 0.00010757,
      "inclination_deg": 87.9163,
      "raan_deg": 316.5202,
      "arg_perigee_deg": 85.4378,
      "mean_anomaly_deg": 274.6878,
      "mean_motion_rev_day": 13.19724375
    },
    {
      "epoch": "2026-04-21T06:52:07.784544Z",
      "apogee_km": 1186.6006014919785,
      "perigee_km": 1184.9503070727023,
      "latitude_deg": -5.8723958194601375e-05,
      "longitude_deg": 3.926843326097941,
      "height_km": 1188.6441239851943,
      "semi_major_axis_km": 7563.91245428234,
      "eccentricity": 0.00010909,
      "inclination_deg": 87.9158,
      "raan_deg": 316.3236,
      "arg_perigee_deg": 87.8372,
      "mean_anomaly_deg": 272.2885,
      "mean_motion_rev_day": 13.19723717
    },
    {
      "epoch": "2026-04-22T19:15:39.302208Z",
      "apogee_km": 1186.5928225544249,
      "perigee_km": 1184.9559921258779,
      "latitude_deg": -6.384296407503736e-05,
      "longitude_deg": 176.24864576443912,
      "height_km": 1188.6922080552206,
      "semi_major_axis_km": 7563.9114073401515,
      "eccentricity": 0.0001082,
      "inclination_deg": 87.9154,
      "raan_deg": 316.0213,
      "arg_perigee_deg": 91.2581,
      "mean_anomaly_deg": 268.8675,
      "mean_motion_rev_day": 13.19723991
    },
    {
      "epoch": "2026-04-23T11:38:14.453664Z",
      "apogee_km": 1186.5865250420384,
      "perigee_km": 1184.959981781144,
      "latitude_deg": 2.1427375155236242e-05,
      "longitude_deg": -70.20647301005216,
      "height_km": 1188.7062872152999,
      "semi_major_axis_km": 7563.910253411591,
      "eccentricity": 0.00010752,
      "inclination_deg": 87.9155,
      "raan_deg": 315.8852,
      "arg_perigee_deg": 92.3395,
      "mean_anomaly_deg": 267.7861,
      "mean_motion_rev_day": 13.19724293
    },
    {
      "epoch": "2026-04-24T14:55:53.105952Z",
      "apogee_km": 1186.5978763054372,
      "perigee_km": 1184.9489438360424,
      "latitude_deg": -1.3173918113614891e-05,
      "longitude_deg": -120.96545456709723,
      "height_km": 1188.7442015632612,
      "semi_major_axis_km": 7563.91041007074,
      "eccentricity": 0.000109,
      "inclination_deg": 87.9154,
      "raan_deg": 315.6582,
      "arg_perigee_deg": 94.9377,
      "mean_anomaly_deg": 265.188,
      "mean_motion_rev_day": 13.19724252
    },
    {
      "epoch": "2026-04-25T14:35:10.610880Z",
      "apogee_km": 1186.5979448496255,
      "perigee_km": 1184.9474997482212,
      "latitude_deg": 1.101948235615624e-06,
      "longitude_deg": -116.95636230829022,
      "height_km": 1188.7612590332103,
      "semi_major_axis_km": 7563.909722298923,
      "eccentricity": 0.0001091,
      "inclination_deg": 87.9154,
      "raan_deg": 315.4617,
      "arg_perigee_deg": 96.1708,
      "mean_anomaly_deg": 263.9549,
      "mean_motion_rev_day": 13.19724432
    },
    {
      "epoch": "2026-04-26T19:41:59.946144Z",
      "apogee_km": 1186.6133271833132,
      "perigee_km": 1184.9374667526408,
      "latitude_deg": -3.334455730346025e-05,
      "longitude_deg": 164.900415930099,
      "height_km": 1188.7954709352498,
      "semi_major_axis_km": 7563.912396967977,
      "eccentricity": 0.00011078,
      "inclination_deg": 87.9153,
      "raan_deg": 315.2197,
      "arg_perigee_deg": 98.2511,
      "mean_anomaly_deg": 261.8747,
      "mean_motion_rev_day": 13.19723732
    },
    {
      "epoch": "2026-04-27T19:21:17.383680Z",
      "apogee_km": 1186.648416198399,
      "perigee_km": 1184.8935895417326,
      "latitude_deg": -6.663590578294882e-05,
      "longitude_deg": 168.90968917292304,
      "height_km": 1188.8213465661688,
      "semi_major_axis_km": 7563.9080028700655,
      "eccentricity": 0.000116,
      "inclination_deg": 87.9151,
      "raan_deg": 315.0231,
      "arg_perigee_deg": 99.8825,
      "mean_anomaly_deg": 260.2438,
      "mean_motion_rev_day": 13.19724882
    },
    {
      "epoch": "2026-04-28T11:43:52.576608Z",
      "apogee_km": 1186.6594336664893,
      "perigee_km": 1184.8834279669345,
      "latitude_deg": -7.798388850541307e-05,
      "longitude_deg": -77.54560452730918,
      "height_km": 1188.8404887892336,
      "semi_major_axis_km": 7563.908430816712,
      "eccentricity": 0.0001174,
      "inclination_deg": 87.9149,
      "raan_deg": 314.887,
      "arg_perigee_deg": 100.9919,
      "mean_anomaly_deg": 259.1345,
      "mean_motion_rev_day": 13.1972477
    },
    {
      "epoch": "2026-04-29T13:12:20.613312Z",
      "apogee_km": 1186.6625227392105,
      "perigee_km": 1184.880919679018,
      "latitude_deg": -3.455638032238541e-05,
      "longitude_deg": -100.92032072871359,
      "height_km": 1188.8681466659434,
      "semi_major_axis_km": 7563.908721209114,
      "eccentricity": 0.00011777,
      "inclination_deg": 87.9149,
      "raan_deg": 314.6753,
      "arg_perigee_deg": 102.7553,
      "mean_anomaly_deg": 257.3711,
      "mean_motion_rev_day": 13.19724694
    },
    {
      "epoch": "2026-04-30T12:51:38.037888Z",
      "apogee_km": 1186.6780021703607,
      "perigee_km": 1184.8617568504533,
      "latitude_deg": -5.005273756119094e-05,
      "longitude_deg": -96.91109359213246,
      "height_km": 1188.8816872499565,
      "semi_major_axis_km": 7563.906879510407,
      "eccentricity": 0.00012006,
      "inclination_deg": 87.9148,
      "raan_deg": 314.4786,
      "arg_perigee_deg": 103.5058,
      "mean_anomaly_deg": 256.6208,
      "mean_motion_rev_day": 13.19725176
    },
    {
      "epoch": "2026-05-02T10:21:02.400192Z",
      "apogee_km": 1186.717839830526,
      "perigee_km": 1184.8238373077475,
      "latitude_deg": -1.1167003017948464e-05,
      "longitude_deg": -61.50881635605367,
      "height_km": 1188.9436220940454,
      "semi_major_axis_km": 7563.907838569136,
      "eccentricity": 0.0001252,
      "inclination_deg": 87.9146,
      "raan_deg": 314.1006,
      "arg_perigee_deg": 106.7619,
      "mean_anomaly_deg": 253.3651,
      "mean_motion_rev_day": 13.19724925
    },
    {
      "epoch": "2026-05-03T13:38:41.044704Z",
      "apogee_km": 1186.7384687394824,
      "perigee_km": 1184.8036210615965,
      "latitude_deg": -2.4209074549715e-05,
      "longitude_deg": -112.26756614573371,
      "height_km": 1188.9674523329352,
      "semi_major_axis_km": 7563.908044900539,
      "eccentricity": 0.0001279,
      "inclination_deg": 87.9146,
      "raan_deg": 313.8738,
      "arg_perigee_deg": 107.8636,
      "mean_anomaly_deg": 252.2636,
      "mean_motion_rev_day": 13.19724871
    }
  ]
}